STARLINK-35510          
1 66397U 25257T   25336.50006943 -.00033487  00000+0 -59665-3 0  9998
2 66397  53.1582 312.7553 0001273  80.4376 247.8398 15.49306597  4851
STARLINK-35642          
1 66398U 25257U   25336.50006943 -.00031018  00000+0 -55193-3 0  9999
2 66398  53.1583 312.7507 0001318  85.9297 244.2663 15.49304382  4850
STARLINK-35657          
1 66399U 25257V   25336.50006943 -.00028845  00000+0 -51258-3 0  9992
2 66399  53.1583 312.7469 0001381  87.7962 244.3180 15.49303234  4857
STARLINK-35667          
1 66400U 25257W   25336.50006943  .00076485  00000+0  13648-2 0  9996
2 66400  53.1582 312.7385 0001621  88.3911 247.6000 15.49413249  4859
STARLINK-35668          
1 66401U 25257X   25336.50006943 -.00029045  00000+0 -51635-3 0  9998
2 66401  53.1583 312.7347 0001214  84.5401 253.3492 15.49294846  4858
STARLINK-35644          
1 66402U 25257Y   25336.50006943 -.00031613  00000+0 -56270-3 0  9993
2 66402  53.1582 312.7426 0001340  86.3336 247.6956 15.49305033  4855
STARLINK-35602          
1 66403U 25257Z   25336.50006943 -.00041969  00000+0 -75052-3 0  9998
2 66403  53.1583 312.7308 0001516  87.6207 252.1582 15.49310440  4856
STARLINK-35691          
1 66404U 25257AA  25336.50006943 -.00029962  00000+0 -53280-3 0  9997
2 66404  53.1582 312.7263 0001366  85.6246 256.0733 15.49303387  4853
STARLINK-35683          
1 66405U 25257AB  25336.50006943 -.00030194  00000+0 -53703-3 0  9997
2 66405  53.1583 312.7219 0001266  86.4116 257.2045 15.49303354  4695
STARLINK-34840          
1 66406U 25257AC  25336.25003472 -.00078605  00000+0 -14185-2 0  9993
2 66406  53.1586 313.9062 0001476  92.9563 301.0415 15.49326872  4755
STARLINK-35686          
1 66407U 25257AD  25336.50006943 -.00039382  00000+0 -70354-3 0  9998
2 66407  53.1582 312.7180 0001480  88.0533 257.4748 15.49310423  4857
STARLINK-35679          
1 66408U 25257AE  25336.50006943 -.00040502  00000+0 -72392-3 0  9999
2 66408  53.1582 312.7153 0001417  85.2257 262.2250 15.49308362  4851
